$$SOE
2460721.500000000, A.D. 2025-Feb-15 00:00:00.0000, -2.901190195639673E+08, -2.984927068081009E+08, 1.742115187253788E+06,
2460728.500000000, A.D. 2025-Feb-22 00:00:00.0000, -2.820082318546813E+08, -3.038646307333285E+08, 2.027306152495310E+06,
2460735.500000000, A.D. 2025-Mar-01 00:00:00.0000, -2.737053084179903E+08, -3.090295733359422E+08, 2.311115566847846E+06,
2460742.500000000, A.D. 2025-Mar-08 00:00:00.0000, -2.652135235839141E+08, -3.139813271545380E+08, 2.593329619964242E+06,
2460749.500000000, A.D. 2025-Mar-15 00:00:00.0000, -2.565363071858409E+08, -3.187136002217836E+08, 2.873729510987729E+06,
2460756.500000000, A.D. 2025-Mar-22 00:00:00.0000, -2.476772567179874E+08, -3.232200138509731E+08, 3.152091459751338E+06,
2460763.500000000, A.D. 2025-Mar-29 00:00:00.0000, -2.386401487333448E+08, -3.274941029514690E+08, 3.428186403870642E+06,
2460770.500000000, A.D. 2025-Apr-05 00:00:00.0000, -2.294289491914441E+08, -3.315293157762440E+08, 3.701779608516514E+06,
2460777.500000000, A.D. 2025-Apr-12 00:00:00.0000, -2.200478247173879E+08, -3.353190130421131E+08, 3.972630374400228E+06,
2460784.500000000, A.D. 2025-Apr-19 00:00:00.0000, -2.105011549951628E+08, -3.388564673525626E+08, 4.240491789621398E+06,
2460791.500000000, A.D. 2025-Apr-26 00:00:00.0000, -2.007935460593066E+08, -3.421348631796172E+08, 4.505110484448925E+06,
2460798.500000000, A.D. 2025-May-03 00:00:00.0000, -1.909298444062301E+08, -3.451472974449077E+08, 4.766226380847514E+06,
2460805.500000000, A.D. 2025-May-10 00:00:00.0000, -1.809151519302114E+08, -3.478867807580185E+08, 5.023572435641676E+06,
2460812.500000000, A.D. 2025-May-17 00:00:00.0000, -1.707548416792975E+08, -3.503462394293846E+08, 5.276874371515691E+06,
2460819.500000000, A.D. 2025-May-24 00:00:00.0000, -1.604545742884185E+08, -3.525185183999563E+08, 5.525850376536697E+06,
2460826.500000000, A.D. 2025-May-31 00:00:00.0000, -1.500203147034418E+08, -3.543963848758962E+08, 5.770210760778904E+06,
2460833.500000000, A.D. 2025-Jun-07 00:00:00.0000, -1.394583496276608E+08, -3.559725315724005E+08, 6.009657707319707E+06,
2460840.500000000, A.D. 2025-Jun-14 00:00:00.0000, -1.287753080812223E+08, -3.572395803513703E+08, 6.243885282440349E+06,
2460847.500000000, A.D. 2025-Jun-21 00:00:00.0000, -1.179781838755302E+08, -3.581900896550403E+08, 6.472579328827575E+06,
2460854.500000000, A.D. 2025-Jun-28 00:00:00.0000, -1.070743568870855E+08, -3.588165641185124E+08, 6.695417102418885E+06,
2460861.500000000, A.D. 2025-Jul-05 00:00:00.0000, -9.607161465353610E+07, -3.591114643678541E+08, 6.912066972345427E+06,
2460868.500000000, A.D. 2025-Jul-12 00:00:00.0000, -8.497817547957288E+07, -3.590672179868242E+08, 7.122188232100204E+06,
2460875.500000000, A.D. 2025-Jul-19 00:00:00.0000, -7.380271284767868E+07, -3.586762324205191E+08, 7.325430962816507E+06,
2460882.500000000, A.D. 2025-Jul-26 00:00:00.0000, -6.255438089287110E+07, -3.579309100819148E+08, 7.521435930581659E+06,
2460889.500000000, A.D. 2025-Aug-02 00:00:00.0000, -5.124284082555316E+07, -3.568236658669618E+08, 7.709834519950673E+06,
2460896.500000000, A.D. 2025-Aug-09 00:00:00.0000, -3.987828820590141E+07, -3.553469473402453E+08, 7.890248707649440E+06,
2460903.500000000, A.D. 2025-Aug-16 00:00:00.0000, -2.847148089425410E+07, -3.534932579220752E+08, 8.062291072842985E+06,
2460910.500000000, A.D. 2025-Aug-23 00:00:00.0000, -1.703376725625383E+07, -3.512551833468805E+08, 8.225564828323707E+06,
2460917.500000000, A.D. 2025-Aug-30 00:00:00.0000, -5.577114129217092E+06, -3.486254209827373E+08, 8.379663911775798E+06,
2460924.500000000, A.D. 2025-Sep-06 00:00:00.0000, 5.885864238803296E+06, -3.455968113312193E+08, 8.524173360997573E+06,
2460931.500000000, A.D. 2025-Sep-13 00:00:00.0000, 1.734187486266043E+07, -3.421623745225608E+08, 8.658669936434269E+06,
2460938.500000000, A.D. 2025-Sep-20 00:00:00.0000, 2.877691589319481E+07, -3.383153537953229E+08, 8.782722570650011E+06,
2460945.500000000, A.D. 2025-Sep-27 00:00:00.0000, 4.017624912476756E+07, -3.340492632041730E+08, 8.895892817908511E+06,
2460952.500000000, A.D. 2025-Oct-04 00:00:00.0000, 5.152437356729986E+07, -3.293579393725615E+08, 8.997735550425977E+06,
2460959.500000000, A.D. 2025-Oct-11 00:00:00.0000, 6.280500023584566E+07, -3.242355985810030E+08, 9.087799877264529E+06,
2460966.500000000, A.D. 2025-Oct-18 00:00:00.0000, 7.400102905658464E+07, -3.186768997957200E+08, 9.165630257379681E+06,
2460973.500000000, A.D. 2025-Oct-25 00:00:00.0000, 8.509452874022438E+07, -3.126770139267628E+08, 9.230767815846235E+06,
2460980.500000000, A.D. 2025-Nov-01 00:00:00.0000, 9.606672047813219E+07, -3.062316995534266E+08, 9.282751882266521E+06,
2460987.500000000, A.D. 2025-Nov-08 00:00:00.0000, 1.068979664246130E+08, -2.993373853372994E+08, 9.321121767175287E+06,
2460994.500000000, A.D. 2025-Nov-15 00:00:00.0000, 1.175677641599764E+08, -2.919912592878226E+08, 9.345418780168012E+06,
2461001.500000000, A.D. 2025-Nov-22 00:00:00.0000, 1.280547487007421E+08, -2.841913646595831E+08, 9.355188493175223E+06,
2461008.500000000, A.D. 2025-Nov-29 00:00:00.0000, 1.383367031806609E+08, -2.759367012062746E+08, 9.349983376960739E+06,
2461015.500000000, A.D. 2025-Dec-06 00:00:00.0000, 1.483905773088231E+08, -2.672273316116198E+08, 9.329366027162954E+06,
2461022.500000000, A.D. 2025-Dec-13 00:00:00.0000, 1.581925155179702E+08, -2.580644959391663E+08, 9.292912679235712E+06,
2461029.500000000, A.D. 2025-Dec-20 00:00:00.0000, 1.677178998535096E+08, -2.484507323047049E+08, 9.240216785726056E+06,
2461036.500000000, A.D. 2025-Dec-27 00:00:00.0000, 1.769414081323180E+08, -2.383900001275750E+08, 9.170892971171156E+06,
2461043.500000000, A.D. 2026-Jan-03 00:00:00.0000, 1.858370875166582E+08, -2.278878052030814E+08, 9.084581445807949E+06,
2461050.500000000, A.D. 2026-Jan-10 00:00:00.0000, 1.943784451660826E+08, -2.169513255451525E+08, 8.980952800893232E+06,
2461057.500000000, A.D. 2026-Jan-17 00:00:00.0000, 2.025385576338024E+08, -2.055895359782034E+08, 8.859713134086400E+06,
2461064.500000000, A.D. 2026-Jan-24 00:00:00.0000, 2.102902003153454E+08, -1.938133289418049E+08, 8.720609463345803E+06,
2461071.500000000, A.D. 2026-Jan-31 00:00:00.0000, 2.176059978991524E+08, -1.816356285911525E+08, 8.563435373166807E+06,
2461078.500000000, A.D. 2026-Feb-07 00:00:00.0000, 2.244585963988281E+08, -1.690714949187526E+08, 8.388036808419831E+06,
2461085.500000000, A.D. 2026-Feb-14 00:00:00.0000, 2.308208570366070E+08, -1.561382142067420E+08, 8.194317896146491E+06,
2461092.500000000, A.D. 2026-Feb-21 00:00:00.0000, 2.366660717895550E+08, -1.428553712421411E+08, 7.982246697074771E+06,
2461099.500000000, A.D. 2026-Feb-28 00:00:00.0000, 2.419681982248970E+08, -1.292448979930406E+08, 7.751860958818197E+06,
2461106.500000000, A.D. 2026-Mar-07 00:00:00.0000, 2.467021094337114E+08, -1.153310965116747E+08, 7.503273761878997E+06,
2461113.500000000, A.D. 2026-Mar-14 00:00:00.0000, 2.508438587810471E+08, -1.011406343173331E+08, 7.236678457193956E+06,
2461120.500000000, A.D. 2026-Mar-21 00:00:00.0000, 2.543709572508343E+08, -8.670250558161548E+07, 6.952352800652597E+06,
2461127.500000000, A.D. 2026-Mar-28 00:00:00.0000, 2.572626564395946E+08, -7.204795383924226E+07, 6.650662380044349E+06,
2461134.500000000, A.D. 2026-Apr-04 00:00:00.0000, 2.595002307866766E+08, -5.721035470993820E+07, 6.332063139796382E+06,
2461141.500000000, A.D. 2026-Apr-11 00:00:00.0000, 2.610672527602025E+08, -4.222505751335207E+07, 5.997102788055500E+06,
2461148.500000000, A.D. 2026-Apr-18 00:00:00.0000, 2.619498540502594E+08, -2.712918552284021E+07, 5.646420929313757E+06,
2461155.500000000, A.D. 2026-Apr-25 00:00:00.0000, 2.621369654113011E+08, -1.196139597357812E+07, 5.280747806276134E+06,
2461162.500000000, A.D. 2026-May-02 00:00:00.0000, 2.616205277971618E+08, 3.238397510887593E+06, 4.900901569385333E+06,
2461169.500000000, A.D. 2026-May-09 00:00:00.0000, 2.603956678935817E+08, 1.842933583150721E+07, 4.507784024780413E+06,
2461176.500000000, A.D. 2026-May-16 00:00:00.0000, 2.584608321317675E+08, 3.356995314125390E+07, 4.102374852798076E+06,
2461183.500000000, A.D. 2026-May-23 00:00:00.0000, 2.558178740142688E+08, 4.861853742959520E+07, 3.685724443536561E+06,
2461190.500000000, A.D. 2026-May-30 00:00:00.0000, 2.524720888856246E+08, 6.353350524506515E+07, 3.258945692286830E+06,
2461197.500000000, A.D. 2026-Jun-06 00:00:00.0000, 2.484321937247994E+08, 7.827377848274609E+07, 2.823204691849642E+06,
2461204.500000000, A.D. 2026-Jun-13 00:00:00.0000, 2.437102553061902E+08, 9.279915428034395E+07, 2.379710215874616E+06,
2461211.500000000, A.D. 2026-Jun-20 00:00:00.0000, 2.383215677676369E+08, 1.070706618911299E+08, 1.929702528133020E+06,
2461218.500000000, A.D. 2026-Jun-27 00:00:00.0000, 2.322844812425003E+08, 1.210508976513844E+08, 1.474441919375889E+06,
2461225.500000000, A.D. 2026-Jul-04 00:00:00.0000, 2.256201865420114E+08, 1.347043296317193E+08, 1.015197190648735E+06,
2461232.500000000, A.D. 2026-Jul-11 00:00:00.0000, 2.183524624829072E+08, 1.479975654473748E+08, 5.532343260601982E+05,
2461239.500000000, A.D. 2026-Jul-18 00:00:00.0000, 2.105073933057414E+08, 1.608995783518371E+08, 8.980560808949172E+04,
2461246.500000000, A.D. 2026-Jul-25 00:00:00.0000, 2.021130641868554E+08, 1.733818883539330E+08, -3.738605954321474E+05,
2461253.500000000, A.D. 2026-Aug-01 00:00:00.0000, 1.931992430992133E+08, 1.854186967286001E+08, -8.365691865357757E+05,
2461260.500000000, A.D. 2026-Aug-08 00:00:00.0000, 1.837970572949872E+08, 1.969869739277187E+08, -1.297166704996690E+06,
2461267.500000000, A.D. 2026-Aug-15 00:00:00.0000, 1.739386724029998E+08, 2.080665028609154E+08, -1.754548603861853E+06,
2461274.500000000, A.D. 2026-Aug-22 00:00:00.0000, 1.636569801962228E+08, 2.186398815357925E+08, -2.207665203233659E+06,
2461281.500000000, A.D. 2026-Aug-29 00:00:00.0000, 1.529852985729153E+08, 2.286924874612152E+08, -2.655526204074845E+06,
2461288.500000000, A.D. 2026-Sep-05 00:00:00.0000, 1.419570906587836E+08, 2.382124054919078E+08, -3.097204208960593E+06,
$$EOE